{
  "type": "FeatureCollection",
  "features": [
    {
      "type": "Feature",
      "properties": {
        "norad_id": 41866,
        "name": "GOES 16",
        "group": "weather",
        "lat": -0.0391208775270432,
        "lon": -48.996003943075046,
        "alt_km": 35776.94071691161,
        "timestamp": "2025-12-06T22:38:42.377857+00:00",
        "meta_object_name": "GOES 16",
        "meta_object_id": "2016-071A",
        "meta_epoch": "2025-12-06T10:53:33.859968",
        "meta_mean_motion": 1.00271363,
        "meta_eccentricity": 0.00035328,
        "meta_inclination": 0.0632,
        "meta_ra_of_asc_node": 107.6248,
        "meta_arg_of_pericenter": 151.6358,
        "meta_mean_anomaly": 234.9539,
        "meta_ephemeris_type": 0,
        "meta_classification_type": "U",
        "meta_norad_cat_id": 41866,
        "meta_element_set_no": 999,
        "meta_rev_at_epoch": 3317,
        "meta_bstar": 0,
        "meta_mean_motion_dot": -8.4e-07,
        "meta_mean_motion_ddot": 0,
        "tle_line1": "1 41866U 16071A   25340.45386412 -.00000084  00000+0  00000+0 0  9998",
        "tle_line2": "2 41866   0.0632 107.6248 0003532 151.6358 234.9539  1.00271363 33170"
      },
      "geometry": {
        "type": "Point",
        "coordinates": [
          -48.996003943075046,
          -0.0391208775270432
        ]
      }
    },
    {
      "type": "Feature",
      "properties": {
        "norad_id": 41882,
        "name": "FENGYUN 4A",
        "group": "weather",
        "lat": 1.8118193474674245,
        "lon": 179.41122258893174,
        "alt_km": 35769.93048695218,
        "timestamp": "2025-12-06T22:38:42.377869+00:00",
        "meta_object_name": "FENGYUN 4A",
        "meta_object_id": "2016-077A",
        "meta_epoch": "2025-12-06T12:32:33.530784",
        "meta_mean_motion": 1.00276587,
        "meta_eccentricity": 0.00050266,
        "meta_inclination": 1.8328,
        "meta_ra_of_asc_node": 82.4533,
        "meta_arg_of_pericenter": 143.1524,
        "meta_mean_anomaly": 161.8915,
        "meta_ephemeris_type": 0,
        "meta_classification_type": "U",
        "meta_norad_cat_id": 41882,
        "meta_element_set_no": 999,
        "meta_rev_at_epoch": 3299,
        "meta_bstar": 0,
        "meta_mean_motion_dot": -3.5e-06,
        "meta_mean_motion_ddot": 0,
        "tle_line1": "1 41882U 16077A   25340.52261031 -.00000350  00000+0  00000+0 0  9995",
        "tle_line2": "2 41882   1.8328  82.4533 0005026 143.1524 161.8915  1.00276587 32995"
      },
      "geometry": {
        "type": "Point",
        "coordinates": [
          179.41122258893174,
          1.8118193474674245
        ]
      }
    },
    {
      "type": "Feature",
      "properties": {
        "norad_id": 41884,
        "name": "CYGFM05",
        "group": "weather",
        "lat": 28.940980574073652,
        "lon": 137.30585731330976,
        "alt_km": 416.93288594977366,
        "timestamp": "2025-12-06T22:38:42.377880+00:00",
        "meta_object_name": "CYGFM05",
        "meta_object_id": "2016-078A",
        "meta_epoch": "2025-12-06T14:39:17.464320",
        "meta_mean_motion": 15.4730439,
        "meta_eccentricity": 0.00094399,
        "meta_inclination": 34.9598,
        "meta_ra_of_asc_node": 87.1575,
        "meta_arg_of_pericenter": 125.1112,
        "meta_mean_anomaly": 235.0496,
        "meta_ephemeris_type": 0,
        "meta_classification_type": "U",
        "meta_norad_cat_id": 41884,
        "meta_element_set_no": 999,
        "meta_rev_at_epoch": 49881,
        "meta_bstar": 0.00056967886,
        "meta_mean_motion_dot": 0.00030072,
        "meta_mean_motion_ddot": 0,
        "tle_line1": "1 41884U 16078A   25340.61061880  .00030072  00000+0  56968-3 0  9999",
        "tle_line2": "2 41884  34.9598  87.1575 0009439 125.1112 235.0496 15.47304390498811"
      },
      "geometry": {
        "type": "Point",
        "coordinates": [
          137.30585731330976,
          28.940980574073652
        ]
      }
    },
    {
      "type": "Feature",
      "properties": {
        "norad_id": 41885,
        "name": "CYGFM04",
        "group": "weather",
        "lat": -29.93435781661291,
        "lon": -64.49156670644578,
        "alt_km": 417.7735825846321,
        "timestamp": "2025-12-06T22:38:42.377891+00:00",
        "meta_object_name": "CYGFM04",
        "meta_object_id": "2016-078B",
        "meta_epoch": "2025-12-06T13:53:02.024160",
        "meta_mean_motion": 15.49983153,
        "meta_eccentricity": 0.00086917,
        "meta_inclination": 34.9353,
        "meta_ra_of_asc_node": 62.3207,
        "meta_arg_of_pericenter": 154.353,
        "meta_mean_anomaly": 205.7624,
        "meta_ephemeris_type": 0,
        "meta_classification_type": "U",
        "meta_norad_cat_id": 41885,
        "meta_element_set_no": 999,
        "meta_rev_at_epoch": 49898,
        "meta_bstar": 0.00057452634,
        "meta_mean_motion_dot": 0.00033335,
        "meta_mean_motion_ddot": 0,
        "tle_line1": "1 41885U 16078B   25340.57849565  .00033335  00000+0  57453-3 0  9994",
        "tle_line2": "2 41885  34.9353  62.3207 0008691 154.3530 205.7624 15.49983153498982"
      },
      "geometry": {
        "type": "Point",
        "coordinates": [
          -64.49156670644578,
          -29.93435781661291
        ]
      }
    },
    {
      "type": "Feature",
      "properties": {
        "norad_id": 41886,
        "name": "CYGFM02",
        "group": "weather",
        "lat": -23.930627864766258,
        "lon": -82.21201322577438,
        "alt_km": 411.47394221243485,
        "timestamp": "2025-12-06T22:38:42.377902+00:00",
        "meta_object_name": "CYGFM02",
        "meta_object_id": "2016-078C",
        "meta_epoch": "2025-12-06T13:57:30.461184",
        "meta_mean_motion": 15.51337898,
        "meta_eccentricity": 0.00104246,
        "meta_inclination": 34.9442,
        "meta_ra_of_asc_node": 60.705,
        "meta_arg_of_pericenter": 153.6447,
        "meta_mean_anomaly": 206.4808,
        "meta_ephemeris_type": 0,
        "meta_classification_type": "U",
        "meta_norad_cat_id": 41886,
        "meta_element_set_no": 999,
        "meta_rev_at_epoch": 49911,
        "meta_bstar": 0.00058158443,
        "meta_mean_motion_dot": 0.00035452,
        "meta_mean_motion_ddot": 0,
        "tle_line1": "1 41886U 16078C   25340.58160256  .00035452  00000+0  58158-3 0  9994",
        "tle_line2": "2 41886  34.9442  60.7050 0010424 153.6447 206.4808 15.51337898499116"
      },
      "geometry": {
        "type": "Point",
        "coordinates": [
          -82.21201322577438,
          -23.930627864766258
        ]
      }
    },
    {
      "type": "Feature",
      "properties": {
        "norad_id": 41887,
        "name": "CYGFM01",
        "group": "weather",
        "lat": 34.92345497294987,
        "lon": 177.26020321339146,
        "alt_km": 411.0637665584045,
        "timestamp": "2025-12-06T22:38:42.377928+00:00",
        "meta_object_name": "CYGFM01",
        "meta_object_id": "2016-078D",
        "meta_epoch": "2025-12-06T14:31:10.443072",
        "meta_mean_motion": 15.47873891,
        "meta_eccentricity": 0.00090782,
        "meta_inclination": 34.9427,
        "meta_ra_of_asc_node": 89.5869,
        "meta_arg_of_pericenter": 116.1363,
        "meta_mean_anomaly": 244.0293,
        "meta_ephemeris_type": 0,
        "meta_classification_type": "U",
        "meta_norad_cat_id": 41887,
        "meta_element_set_no": 999,
        "meta_rev_at_epoch": 49875,
        "meta_bstar": 0.00057301935,
        "meta_mean_motion_dot": 0.00030857,
        "meta_mean_motion_ddot": 0,
        "tle_line1": "1 41887U 16078D   25340.60498198  .00030857  00000+0  57302-3 0  9991",
        "tle_line2": "2 41887  34.9427  89.5869 0009078 116.1363 244.0293 15.47873891498759"
      },
      "geometry": {
        "type": "Point",
        "coordinates": [
          177.26020321339146,
          34.92345497294987
        ]
      }
    },
    {
      "type": "Feature",
      "properties": {
        "norad_id": 41888,
        "name": "CYGFM08",
        "group": "weather",
        "lat": 31.735345080934533,
        "lon": -171.9000530090025,
        "alt_km": 407.23046601225997,
        "timestamp": "2025-12-06T22:38:42.377941+00:00",
        "meta_object_name": "CYGFM08",
        "meta_object_id": "2016-078E",
        "meta_epoch": "2025-12-06T14:25:31.629792",
        "meta_mean_motion": 15.49060327,
        "meta_eccentricity": 0.00108244,
        "meta_inclination": 34.9461,
        "meta_ra_of_asc_node": 72.6755,
        "meta_arg_of_pericenter": 141.8988,
        "meta_mean_anomaly": 218.2501,
        "meta_ephemeris_type": 0,
        "meta_classification_type": "U",
        "meta_norad_cat_id": 41888,
        "meta_element_set_no": 999,
        "meta_rev_at_epoch": 49898,
        "meta_bstar": 0.00057361432,
        "meta_mean_motion_dot": 0.00032233,
        "meta_mean_motion_ddot": 0,
        "tle_line1": "1 41888U 16078E   25340.60106053  .00032233  00000+0  57361-3 0  9993",
        "tle_line2": "2 41888  34.9461  72.6755 0010824 141.8988 218.2501 15.49060327498988"
      },
      "geometry": {
        "type": "Point",
        "coordinates": [
          -171.9000530090025,
          31.735345080934533
        ]
      }
    }
  ]
}